[{"OBJECT_NAME":"STARLINK-5651","OBJECT_ID":"2023-013AC","EPOCH":"2026-03-09T08:41:54.106656","MEAN_MOTION":15.02535305,"ECCENTRICITY":0.00012962,"INCLINATION":43.0051,"RA_OF_ASC_NODE":301.8119,"ARG_OF_PERICENTER":269.3716,"MEAN_ANOMALY":90.6978,"EPHEMERIS_TYPE":0,"CLASSIFICATION_TYPE":"U","NORAD_CAT_ID":55357,"ELEMENT_SET_NO":999,"REV_AT_EPOCH":17166,"BSTAR":2.1450466e-5,"MEAN_MOTION_DOT":8.6e-7,"MEAN_MOTION_DDOT":0},{"OBJECT_NAME":"FENGYUN 1C DEB","OBJECT_ID":"1999-025CGF","EPOCH":"2026-03-09T22:03:04.747680","MEAN_MOTION":14.70112354,"ECCENTRICITY":0.01494246,"INCLINATION":99.2965,"RA_OF_ASC_NODE":238.5623,"ARG_OF_PERICENTER":145.3252,"MEAN_ANOMALY":215.7803,"EPHEMERIS_TYPE":0,"CLASSIFICATION_TYPE":"U","NORAD_CAT_ID":31780,"ELEMENT_SET_NO":999,"REV_AT_EPOCH":99778,"BSTAR":0.00059016291,"MEAN_MOTION_DOT":4.146e-5,"MEAN_MOTION_DDOT":0}]
